NORAD_CAT_ID,OBJECT_NAME,OBJECT_TYPE,EPOCH,MEAN_MOTION,ECCENTRICITY,INCLINATION,RA_OF_ASC_NODE,ARG_OF_PERICENTER,MEAN_ANOMALY,BSTAR,MEAN_MOTION_DOT,MEAN_MOTION_DDOT,TLE_LINE0,TLE_LINE1,TLE_LINE2,SEMIMAJOR_AXIS,PERIOD,APOGEE,PERIGEE,DECAYED
53037.0,STARLINK-4153,PAYLOAD,2023-03-29 08:11:52,15.08853959,0.0001271,53.2145,226.0392,108.1941,251.9189,0.00029948,4.483e-05,0.0,0 STARLINK-4153,1 53037U 22076BD  23088.34157715  .00004483  00000-0  29948-3 0  9993,2 53037  53.2145 226.0392 0001271 108.1941 251.9189 15.08853959 41091,6917.838,95.437,540.582,538.823,0.0
53037.0,STARLINK-4153,PAYLOAD,2023-03-29 12:58:01,15.0884426,0.0001272,53.2156,225.1436,96.6466,263.4671,0.00024297,3.582e-05,0.0,0 STARLINK-4153,1 53037U 22076BD  23088.54029995  .00003582  00000-0  24297-3 0  9994,2 53037  53.2156 225.1436 0001272  96.6466 263.4671 15.08844260 41129,6917.867,95.437,540.612,538.852,0.0
53037.0,STARLINK-4153,PAYLOAD,2023-03-29 16:08:48,15.08853207,0.0001015,53.2149,224.5486,91.3341,268.7767,0.00048332,7.415e-05,0.0,0 STARLINK-4153,1 53037U 22076BD  23088.67277791  .00007415  00000-0  48332-3 0  9992,2 53037  53.2149 224.5486 0001015  91.3341 268.7767 15.08853207 40683,6917.84,95.437,540.407,539.003,0.0
53037.0,STARLINK-4153,PAYLOAD,2023-03-30 09:38:03,15.08839392,0.0001017,53.2158,221.2779,86.7997,273.3111,0.00021509,3.137e-05,0.0,0 STARLINK-4153,1 53037U 22076BD  23089.40142370  .00003137  00000-0  21509-3 0  9992,2 53037  53.2158 221.2779 0001017  86.7997 273.3111 15.08839392 41257,6917.882,95.438,540.451,539.044,0.0
53037.0,STARLINK-4153,PAYLOAD,2023-03-30 15:59:35,15.08854622,0.0001172,53.2145,220.0875,80.1184,279.9941,0.00092633,0.00014491,0.0,0 STARLINK-4153,1 53037U 22076BD  23089.66638228  .00014491  00000-0  92633-3 0  9993,2 53037  53.2145 220.0875 0001172  80.1184 279.9941 15.08854622 41295,6917.836,95.437,540.511,538.89,0.0
53037.0,STARLINK-4153,PAYLOAD,2023-03-31 01:31:54,15.08851218,0.0001732,53.2148,218.306,96.7626,263.3563,0.000685,0.00010634,0.0,0 STARLINK-4153,1 53037U 22076BD  23090.06382372  .00010634  00000-0  68500-3 0  9996,2 53037  53.2148 218.3060 0001732  96.7626 263.3563 15.08851218 41352,6917.846,95.437,540.909,538.513,0.0
53037.0,STARLINK-4153,PAYLOAD,2023-03-31 12:39:36,15.08842298,0.0001559,53.2153,216.2244,98.5545,261.5624,8.5274e-05,1.069e-05,0.0,0 STARLINK-4153,1 53037U 22076BD  23090.52750339  .00001069  00000-0  85274-4 0  9999,2 53037  53.2153 216.2244 0001559  98.5545 261.5624 15.08842298 41420,6917.873,95.437,540.817,538.66,0.0
53037.0,STARLINK-4153,PAYLOAD,2023-04-01 12:30:24,15.08830112,0.0001423,53.2159,211.7622,91.1413,268.9742,-8.2388e-05,-1.599e-05,0.0,0 STARLINK-4153,1 53037U 22076BD  23091.52111401 -.00001599  00000-0 -82388-4 0  9994,2 53037  53.2159 211.7622 0001423  91.1413 268.9742 15.08830112 41119,6917.911,95.438,540.76,538.791,0.0
53037.0,STARLINK-4153,PAYLOAD,2023-04-01 14:05:47,15.08829408,0.0001263,53.2158,211.4652,85.238,274.8756,-8.04e-05,-1.567e-05,0.0,0 STARLINK-4153,1 53037U 22076BD  23091.58735455 -.00001567  00000-0 -80400-4 0  9999,2 53037  53.2158 211.4652 0001263  85.2380 274.8756 15.08829408 41585,6917.913,95.438,540.651,538.904,0.0
53037.0,STARLINK-4153,PAYLOAD,2023-04-01 15:41:10,15.08834408,0.0001444,53.2168,211.1669,75.4625,284.6527,9.2016e-06,-1.42e-06,0.0,0 STARLINK-4153,1 53037U 22076BD  23091.65359726 -.00000142  00000-0  92016-5 0  9994,2 53037  53.2168 211.1669 0001444  75.4625 284.6527 15.08834408 41137,6917.897,95.438,540.761,538.764,0.0
53037.0,STARLINK-4153,PAYLOAD,2023-04-02 13:56:34,15.08845944,0.000158,53.2154,207.0049,69.076,291.0401,0.00022725,3.331e-05,0.0,0 STARLINK-4153,1 53037U 22076BD  23092.58095198  .00003331  00000-0  22725-3 0  9997,2 53037  53.2154 207.0049 0001580  69.0760 291.0401 15.08845944 41734,6917.862,95.437,540.82,538.634,0.0
53037.0,STARLINK-4153,PAYLOAD,2023-04-03 12:11:58,15.08842107,0.0001456,53.2159,202.8394,90.8524,269.2635,0.00015893,2.242e-05,0.0,0 STARLINK-4153,1 53037U 22076BD  23093.50831353  .00002242  00000-0  15893-3 0  9999,2 53037  53.2159 202.8394 0001456  90.8524 269.2635 15.08842107 41876,6917.874,95.437,540.746,538.732,0.0
53037.0,STARLINK-4153,PAYLOAD,2023-04-04 12:02:44,15.0884812,0.0001485,53.2154,198.3817,73.8748,286.2407,9.8848e-05,1.286e-05,0.0,0 STARLINK-4153,1 53037U 22076BD  23094.50190917  .00001286  00000-0  98848-4 0  9993,2 53037  53.2154 198.3817 0001485  73.8748 286.2407 15.08848120 41564,6917.856,95.437,540.748,538.693,0.0
53037.0,STARLINK-4153,PAYLOAD,2023-04-05 05:32:00,15.08827672,0.0001184,53.2166,195.1129,70.0148,290.0971,0.00035294,5.332e-05,0.0,0 STARLINK-4153,1 53037U 22076BD  23095.23055850  .00005332  00000-0  35294-3 0  9991,2 53037  53.2166 195.1129 0001184  70.0148 290.0971 15.08827672 42139,6917.918,95.438,540.602,538.964,0.0
53037.0,STARLINK-4153,PAYLOAD,2023-04-05 11:53:32,15.0883567,0.000134,53.2149,193.9187,103.3563,256.7578,8.3131e-06,-1.56e-06,0.0,0 STARLINK-4153,1 53037U 22076BD  23095.49551449 -.00000156  00000-0  83131-5 0  9999,2 53037  53.2149 193.9187 0001340 103.3563 256.7578 15.08835670 41717,6917.894,95.438,540.686,538.832,0.0
53037.0,STARLINK-4153,PAYLOAD,2023-04-06 10:08:56,15.0884089,0.0001318,53.216,189.7567,107.07,253.0436,4.0738e-05,3.61e-06,0.0,0 STARLINK-4153,1 53037U 22076BD  23096.42287233  .00000361  00000-0  40738-4 0  9992,2 53037  53.2160 189.7567 0001318 107.0700 253.0436 15.08840890 42314,6917.878,95.437,540.654,538.831,0.0
53037.0,STARLINK-4153,PAYLOAD,2023-04-06 11:44:19,15.08841807,0.00015,53.216,189.4594,110.2366,249.8788,3.7583e-05,3.1e-06,0.0,0 STARLINK-4153,1 53037U 22076BD  23096.48911194  .00000310  00000-0  37583-4 0  9996,2 53037  53.2160 189.4594 0001500 110.2366 249.8788 15.08841807 41869,6917.875,95.437,540.778,538.702,0.0
53037.0,STARLINK-4153,PAYLOAD,2023-04-07 11:35:06,15.0884197,0.0001373,53.2162,184.9994,108.259,251.8552,0.00014566,2.031e-05,0.0,0 STARLINK-4153,1 53037U 22076BD  23097.48271308  .00002031  00000-0  14566-3 0  9990,2 53037  53.2162 184.9994 0001373 108.2590 251.8552 15.08841970 42470,6917.874,95.437,540.689,538.79,0.0
53037.0,STARLINK-4153,PAYLOAD,2023-04-08 13:01:16,15.0884488,0.0001395,53.2159,180.2413,90.2528,269.8624,0.00011296,1.511e-05,0.0,0 STARLINK-4153,1 53037U 22076BD  23098.54255206  .00001511  00000-0  11296-3 0  9996,2 53037  53.2159 180.2413 0001395  90.2528 269.8624 15.08844880 42636,6917.865,95.437,540.696,538.765,0.0
53037.0,STARLINK-4153,PAYLOAD,2023-04-09 04:55:08,15.08840127,0.0001383,53.2154,177.2674,89.3261,270.789,7.6918e-05,9.36e-06,0.0,0 STARLINK-4153,1 53037U 22076BD  23099.20495453  .00000936  00000-0  76918-4 0  9993,2 53037  53.2154 177.2674 0001383  89.3261 270.7890 15.08840127 42733,6917.88,95.438,540.702,538.788,0.0
53037.0,STARLINK-4153,PAYLOAD,2023-04-09 11:16:40,15.08841207,0.0001346,53.2152,176.0775,88.5716,271.5431,3.1012e-05,2.06e-06,0.0,0 STARLINK-4153,1 53037U 22076BD  23099.46991400  .00000206  00000-0  31012-4 0  9990,2 53037  53.2152 176.0775 0001346  88.5716 271.5431 15.08841207 42319,6917.877,95.437,540.673,538.811,0.0
53037.0,STARLINK-4153,PAYLOAD,2023-04-09 12:52:03,15.08842406,0.0001343,53.2156,175.7806,84.3472,275.7673,5.1442e-05,5.31e-06,0.0,0 STARLINK-4153,1 53037U 22076BD  23099.53615363  .00000531  00000-0  51442-4 0  9999,2 53037  53.2156 175.7806 0001343  84.3472 275.7673 15.08842406 42321,6917.873,95.437,540.667,538.809,0.0
53037.0,STARLINK-4153,PAYLOAD,2023-04-10 04:45:55,15.08831996,0.0001536,53.2171,172.8089,74.5067,285.6095,0.00016107,2.276e-05,0.0,0 STARLINK-4153,1 53037U 22076BD  23100.19856111  .00002276  00000-0  16107-3 0  9998,2 53037  53.2171 172.8089 0001536  74.5067 285.6095 15.08831996 42885,6917.905,95.438,540.832,538.707,0.0
53037.0,STARLINK-4153,PAYLOAD,2023-04-11 04:36:42,15.08844583,0.0001996,53.2161,168.351,69.186,290.9346,0.00013553,1.87e-05,0.0,0 STARLINK-4153,1 53037U 22076BD  23101.19215283  .00001870  00000-0  13553-3 0  9999,2 53037  53.2161 168.3510 0001996  69.1860 290.9346 15.08844583 43036,6917.866,95.437,541.112,538.351,0.0
53037.0,STARLINK-4153,PAYLOAD,2023-04-11 10:58:14,15.08849511,0.0001427,53.2143,167.1571,76.9802,283.1349,0.0002191,3.202e-05,0.0,0 STARLINK-4153,1 53037U 22076BD  23101.45711082  .00003202  00000-0  21910-3 0  9993,2 53037  53.2143 167.1571 0001427  76.9802 283.1349 15.08849511 42617,6917.851,95.437,540.703,538.729,0.0
53037.0,STARLINK-4153,PAYLOAD,2023-04-12 04:27:29,15.08840276,0.0001203,53.2127,163.884,79.4569,280.6559,7.9085e-05,9.71e-06,0.0,0 STARLINK-4153,1 53037U 22076BD  23102.18575381  .00000971  00000-0  79085-4 0  9991,2 53037  53.2127 163.8840 0001203  79.4569 280.6559 15.08840276 43188,6917.88,95.438,540.577,538.912,0.0
53037.0,STARLINK-4153,PAYLOAD,2023-04-12 09:13:39,15.0882541,0.0001312,53.215,162.9936,97.7064,262.4077,0.00031531,4.732e-05,0.0,0 STARLINK-4153,1 53037U 22076BD  23102.38448216  .00004732  00000-0  31531-3 0  9991,2 53037  53.2150 162.9936 0001312  97.7064 262.4077 15.08825410 43214,6917.925,95.438,540.698,538.882,0.0
53037.0,STARLINK-4153,PAYLOAD,2023-04-13 10:39:49,15.08829321,0.0001538,53.2153,158.2344,110.7579,249.3578,0.00013198,1.813e-05,0.0,0 STARLINK-4153,1 53037U 22076BD  23103.44432048  .00001813  00000-0  13198-3 0  9991,2 53037  53.2153 158.2344 0001538 110.7579 249.3578 15.08829321 42916,6917.913,95.438,540.842,538.714,0.0
53037.0,STARLINK-4153,PAYLOAD,2023-04-14 08:55:13,15.08833549,0.0001283,53.215,154.0718,97.4657,262.6481,0.00010336,1.357e-05,0.0,0 STARLINK-4153,1 53037U 22076BD  23104.37168116  .00001357  00000-0  10336-3 0  9990,2 53037  53.2150 154.0718 0001283  97.4657 262.6481 15.08833549 43512,6917.9,95.438,540.653,538.878,0.0
53037.0,STARLINK-4153,PAYLOAD,2023-04-14 10:30:36,15.08835104,0.0001328,53.2151,153.7745,102.578,257.5361,0.00011831,1.595e-05,0.0,0 STARLINK-4153,1 53037U 22076BD  23104.43792011  .00001595  00000-0  11831-3 0  9999,2 53037  53.2151 153.7745 0001328 102.5780 257.5361 15.08835104 43063,6917.895,95.438,540.679,538.842,0.0
